NORAD_CAT_ID,OBJECT_NAME,OBJECT_TYPE,EPOCH,MEAN_MOTION,ECCENTRICITY,INCLINATION,RA_OF_ASC_NODE,ARG_OF_PERICENTER,MEAN_ANOMALY,BSTAR,MEAN_MOTION_DOT,MEAN_MOTION_DDOT,TLE_LINE0,TLE_LINE1,TLE_LINE2,SEMIMAJOR_AXIS,PERIOD,APOGEE,PERIGEE,DECAYED
52286.0,STARLINK-3802,PAYLOAD,2023-05-08 13:47:26,15.08837922,0.0001154,53.2175,70.4198,96.874,263.2384,-4.6359e-07,-2.95e-06,0.0,0 STARLINK-3802,1 52286U 22041AB  23128.57460986 -.00000295  00000-0 -46359-6 0  9994,2 52286  53.2175  70.4198 0001154  96.8740 263.2384 15.08837922 58086,6917.887,95.438,540.55,538.953,0.0
52286.0,STARLINK-3802,PAYLOAD,2023-05-09 02:30:30,15.08853758,0.0001226,53.2168,68.0408,89.8219,270.2913,4.3067e-05,3.98e-06,0.0,0 STARLINK-3802,1 52286U 22041AB  23129.10451829  .00000398  00000-0  43067-4 0  9993,2 52286  53.2168  68.0408 0001226  89.8219 270.2913 15.08853758 59383,6917.838,95.437,540.551,538.855,0.0
52286.0,STARLINK-3802,PAYLOAD,2023-05-10 02:21:18,15.08838889,0.0001176,53.2172,63.5809,82.0912,278.0213,5.9694e-05,6.62e-06,0.0,0 STARLINK-3802,1 52286U 22041AB  23130.09812863  .00000662  00000-0  59694-4 0  9999,2 52286  53.2172  63.5809 0001176  82.0912 278.0213 15.08838889 58311,6917.884,95.438,540.562,538.935,0.0
52286.0,STARLINK-3802,PAYLOAD,2023-05-11 02:12:04,15.08855435,0.0001198,53.2177,59.1196,89.4877,270.6252,7.7806e-05,9.51e-06,0.0,0 STARLINK-3802,1 52286U 22041AB  23131.09171760  .00000951  00000-0  77806-4 0  9990,2 52286  53.2177  59.1196 0001198  89.4877 270.6252 15.08855435 59689,6917.833,95.437,540.527,538.869,0.0
52286.0,STARLINK-3802,PAYLOAD,2023-05-12 02:02:53,15.08833164,0.000121,53.217,54.6582,72.7917,287.3207,-2.97e-05,-7.6e-06,0.0,0 STARLINK-3802,1 52286U 22041AB  23132.08533714 -.00000760  00000-0 -29700-4 0  9991,2 52286  53.2170  54.6582 0001210  72.7917 287.3207 15.08833164 59833,6917.901,95.438,540.603,538.929,0.0
52286.0,STARLINK-3802,PAYLOAD,2023-05-13 03:29:02,15.08853263,0.0001133,53.2181,49.9042,106.9414,253.1702,3.7e-05,3.01e-06,0.0,0 STARLINK-3802,1 52286U 22041AB  23133.14516415  .00000301  00000-0  37000-4 0  9999,2 52286  53.2181  49.9042 0001133 106.9414 253.1702 15.08853263 59999,6917.84,95.437,540.489,538.921,0.0
52286.0,STARLINK-3802,PAYLOAD,2023-05-14 03:19:50,15.08840056,0.0001213,53.2181,45.4438,109.8374,250.2749,9.5746e-05,1.236e-05,0.0,0 STARLINK-3802,1 52286U 22041AB  23134.13877394  .00001236  00000-0  95746-4 0  9994,2 52286  53.2181  45.4438 0001213 109.8374 250.2749 15.08840056 60149,6917.88,95.438,540.584,538.906,0.0
52286.0,STARLINK-3802,PAYLOAD,2023-05-14 20:49:04,15.08842447,0.0001254,53.218,42.1733,106.9964,253.1165,-2.4725e-05,-6.81e-06,0.0,0 STARLINK-3802,1 52286U 22041AB  23134.86741746 -.00000681  00000-0 -24725-4 0  9999,2 52286  53.2180  42.1733 0001254 106.9964 253.1165 15.08842447 59034,6917.873,95.437,540.605,538.87,0.0
52286.0,STARLINK-3802,PAYLOAD,2023-05-15 03:10:36,15.08851153,0.0001168,53.2179,40.9817,104.421,255.6912,4.3686e-05,4.08e-06,0.0,0 STARLINK-3802,1 52286U 22041AB  23135.13236895  .00000408  00000-0  43686-4 0  9996,2 52286  53.2179  40.9817 0001168 104.4210 255.6912 15.08851153 59077,6917.846,95.437,540.519,538.903,0.0
52286.0,STARLINK-3802,PAYLOAD,2023-05-16 03:01:23,15.08847799,0.0001184,53.2188,36.5185,97.5967,262.516,5.6689e-05,6.15e-06,0.0,0 STARLINK-3802,1 52286U 22041AB  23136.12596959  .00000615  00000-0  56689-4 0  9993,2 52286  53.2188  36.5185 0001184  97.5967 262.5160 15.08847799 60441,6917.857,95.437,540.541,538.902,0.0
52286.0,STARLINK-3802,PAYLOAD,2023-05-16 20:30:38,15.08840362,0.0001201,53.218,33.2483,100.5015,259.6112,-4.3222e-05,-9.76e-06,0.0,0 STARLINK-3802,1 52286U 22041AB  23136.85461730 -.00000976  00000-0 -43222-4 0  9992,2 52286  53.2180  33.2483 0001201 100.5015 259.6112 15.08840362 60552,6917.879,95.438,540.575,538.913,0.0
52286.0,STARLINK-3802,PAYLOAD,2023-05-16 22:06:01,15.08841856,0.0001185,53.2173,32.9514,110.4785,249.6334,-3.75e-05,-8.85e-06,0.0,0 STARLINK-3802,1 52286U 22041AB  23136.92085537 -.00000885  00000-0 -37500-4 0  9998,2 52286  53.2173  32.9514 0001185 110.4785 249.6334 15.08841856 59349,6917.875,95.437,540.559,538.92,0.0
52286.0,STARLINK-3802,PAYLOAD,2023-05-17 21:56:49,15.08837811,0.0001232,53.2187,28.489,91.3336,268.7797,-3.0439e-05,-7.72e-06,0.0,0 STARLINK-3802,1 52286U 22041AB  23137.91445872 -.00000772  00000-0 -30439-4 0  9999,2 52286  53.2187  28.4890 0001232  91.3336 268.7797 15.08837811 59490,6917.887,95.438,540.604,538.9,0.0
52286.0,STARLINK-3802,PAYLOAD,2023-05-18 02:42:58,15.08840058,0.0001107,53.2176,27.5998,84.425,275.6868,-1.7164e-05,-5.61e-06,0.0,0 STARLINK-3802,1 52286U 22041AB  23138.11317703 -.00000561  00000-0 -17164-4 0  9999,2 52286  53.2176  27.5998 0001107  84.4250 275.6868 15.08840058 60749,6917.88,95.438,540.511,538.979,0.0
52286.0,STARLINK-3802,PAYLOAD,2023-05-19 21:38:23,15.0883814,0.0001113,53.2179,19.5721,74.6281,285.4834,1.3275e-05,-7.7e-07,0.0,0 STARLINK-3802,1 52286U 22041AB  23139.90166049 -.00000077  00000-0  13275-4 0  9992,2 52286  53.2179  19.5721 0001113  74.6281 285.4834 15.08838140 59793,6917.886,95.438,540.521,538.981,0.0
52286.0,STARLINK-3802,PAYLOAD,2023-05-20 19:53:46,15.08842226,0.0001071,53.2182,15.4102,78.7874,281.3239,8.26e-05,1.027e-05,0.0,0 STARLINK-3802,1 52286U 22041AB  23140.82901466  .00001027  00000-0  82600-4 0  9998,2 52286  53.2182  15.4102 0001071  78.7874 281.3239 15.08842226 59931,6917.874,95.437,540.479,538.998,0.0
52286.0,STARLINK-3802,PAYLOAD,2023-05-21 00:39:55,15.08848786,0.0001207,53.2181,14.5166,73.5842,286.5283,0.00013323,1.834e-05,0.0,0 STARLINK-3802,1 52286U 22041AB  23141.02772870  .00001834  00000-0  13323-3 0  9997,2 52286  53.2181  14.5166 0001207  73.5842 286.5283 15.08848786 61182,6917.854,95.437,540.554,538.884,0.0
52286.0,STARLINK-3802,PAYLOAD,2023-05-22 00:30:44,15.08827517,0.0001102,53.2181,10.0565,102.7228,257.3887,-6.6743e-05,-1.349e-05,0.0,0 STARLINK-3802,1 52286U 22041AB  23142.02135406 -.00001349  00000-0 -66743-4 0  9994,2 52286  53.2181  10.0565 0001102 102.7228 257.3887 15.08827517 61335,6917.919,95.438,540.546,539.021,0.0
52286.0,STARLINK-3802,PAYLOAD,2023-05-22 08:27:40,15.08835788,0.0001102,53.2189,8.5709,94.6045,265.5074,6.4036e-06,-1.86e-06,0.0,0 STARLINK-3802,1 52286U 22041AB  23142.35254919 -.00000186  00000-0  64036-5 0  9992,2 52286  53.2189   8.5709 0001102  94.6045 265.5074 15.08835788 61384,6917.893,95.438,540.521,538.996,0.0
52286.0,STARLINK-3802,PAYLOAD,2023-05-22 17:59:58,15.08845034,0.0001032,53.218,6.7867,93.9297,266.1813,6.1229e-05,6.87e-06,0.0,0 STARLINK-3802,1 52286U 22041AB  23142.74998215  .00000687  00000-0  61229-4 0  9994,2 52286  53.2180   6.7867 0001032  93.9297 266.1813 15.08845034 61443,6917.865,95.437,540.444,539.016,0.0
52286.0,STARLINK-3802,PAYLOAD,2023-05-22 21:10:44,15.08850092,9.99e-05,53.218,6.1912,96.7654,263.3452,8.0447e-05,9.93e-06,0.0,0 STARLINK-3802,1 52286U 22041AB  23142.88245829  .00000993  00000-0  80447-4 0  9998,2 52286  53.2180   6.1912 0000999  96.7654 263.3452 15.08850092 60242,6917.85,95.437,540.406,539.023,0.0
52286.0,STARLINK-3802,PAYLOAD,2023-05-23 17:50:46,15.08835054,7.1e-05,53.2179,2.3292,84.6889,275.4184,0.0001567,2.207e-05,0.0,0 STARLINK-3802,1 52286U 22041AB  23143.74358841  .00002207  00000-0  15670-3 0  9998,2 52286  53.2179   2.3292 0000710  84.6889 275.4184 15.08835054 60377,6917.896,95.438,540.252,539.269,0.0
52286.0,STARLINK-3802,PAYLOAD,2023-05-23 21:01:32,15.08834956,8.89e-05,53.2173,1.7335,93.4457,266.6637,0.00017407,2.483e-05,0.0,0 STARLINK-3802,1 52286U 22041AB  23143.87606807  .00002483  00000-0  17407-3 0  9996,2 52286  53.2173   1.7335 0000889  93.4457 266.6637 15.08834956 61611,6917.896,95.438,540.376,539.146,0.0
52286.0,STARLINK-3802,PAYLOAD,2023-05-25 14:21:33,15.08841002,9.55e-05,53.2178,354.0019,90.2951,269.815,5.1546e-05,5.33e-06,0.0,0 STARLINK-3802,1 52286U 22041AB  23145.59830789  .00000533  00000-0  51546-4 0  9992,2 52286  53.2178 354.0019 0000955  90.2951 269.8150 15.08841002 60655,6917.877,95.437,540.403,539.082,0.0
52286.0,STARLINK-3802,PAYLOAD,2023-05-25 19:07:43,15.08841894,9.65e-05,53.2178,353.1096,90.4155,269.6947,5.5531e-05,5.96e-06,0.0,0 STARLINK-3802,1 52286U 22041AB  23145.79702693  .00000596  00000-0  55531-4 0  9993,2 52286  53.2178 353.1096 0000965  90.4155 269.6947 15.08841894 61909,6917.875,95.437,540.407,539.072,0.0
52286.0,STARLINK-3802,PAYLOAD,2023-05-26 14:12:21,15.08837905,9.51e-05,53.2176,349.5397,85.2582,274.8519,2.2087e-05,6.4e-07,0.0,0 STARLINK-3802,1 52286U 22041AB  23146.59191075  .00000064  00000-0  22087-4 0  9998,2 52286  53.2176 349.5397 0000951  85.2582 274.8519 15.08837905 60800,6917.887,95.438,540.41,539.094,0.0
52286.0,STARLINK-3802,PAYLOAD,2023-05-26 18:58:30,15.08837797,9.46e-05,53.2176,348.6477,84.6322,275.4778,1.7717e-05,-6e-08,0.0,0 STARLINK-3802,1 52286U 22041AB  23146.79063101 -.00000006  00000-0  17717-4 0  9999,2 52286  53.2176 348.6477 0000946  84.6322 275.4778 15.08837797 62050,6917.887,95.438,540.407,539.098,0.0
52286.0,STARLINK-3802,PAYLOAD,2023-05-26 20:33:53,15.08838699,9.74e-05,53.2178,348.3503,85.8451,274.2653,2.5473e-05,1.18e-06,0.0,0 STARLINK-3802,1 52286U 22041AB  23146.85687009  .00000118  00000-0  25473-4 0  9996,2 52286  53.2178 348.3503 0000974  85.8451 274.2653 15.08838699 60842,6917.884,95.438,540.423,539.076,0.0
52286.0,STARLINK-3802,PAYLOAD,2023-05-27 20:24:40,15.08839641,9.19e-05,53.2171,343.8893,88.4295,271.6803,2.7734e-05,1.54e-06,0.0,0 STARLINK-3802,1 52286U 22041AB  23147.85046991  .00000154  00000-0  27734-4 0  9998,2 52286  53.2171 343.8893 0000919  88.4295 271.6803 15.08839641 62210,6917.881,95.438,540.382,539.111,0.0
52286.0,STARLINK-3802,PAYLOAD,2023-05-28 05:56:59,15.08837099,9.09e-05,53.2169,342.1045,89.5724,270.5372,4.0014e-05,3.49e-06,0.0,0 STARLINK-3802,1 52286U 22041AB  23148.24791136  .00000349  00000-0  40014-4 0  9992,2 52286  53.2169 342.1045 0000909  89.5724 270.5372 15.08837099 61051,6917.889,95.438,540.383,539.125,0.0
